#dP2024  4  5  6  0  0.00000000      96 __u+U IGS20 EXT  IAC
## 2308 453600.00000000   900.00000000 60405 0.2500000000000
+  119   C06C07C08C09C10C11C12C13C14C16C19C20C21C22C23C24C25
+        C26C27C28C29C30C32C33C34C35C36C37C38C39C40C41C42C43
+        C44C45C46E02E03E04E05E07E08E09E10E11E12E13E15E18E19
+        E21E24E25E26E27E30E31E33E34E36G01G02G03G04G05G06G07
+        G08G09G10G11G12G13G14G15G16G17G18G19G20G21G22G23G24
+        G25G26G27G28G29G30G31G32J02J03J04R01R02R03R04R05R07
+        R08R09R11R12R13R14R15R16R17R18R19R20R21R22R24R25R26
++        10  9  9 10  9 10  9 10 10 10  9  9  8  8 10  9  9
++        10  9  8  9  9  8  9  8  9  9 10 10 11  9  8  9  9
++         9  9  9  8  8  8  9  8  8  9  9  8  9  9  8  8  9
++         9  9  8  9  9  8  9  9  8  9  8  9  8  8  9  8  9
++         8  8  8  8  8  8  8  9  8  9  8  9  8  8  8  8  9
++         8  8  8  8  8  9  8  8  9 10  0  9  9  8  9 10  8
++         9  8  9  9  9  9  9  9  9  8  8  9  9  8  8  9  9
%c M  cc GPS ccc cccc cccc cccc cccc ccccc ccccc ccccc ccccc
%c cc cc ccc ccc cccc cccc cccc cccc ccccc ccccc ccccc ccccc
%f  0.0000000  0.000000000  0.00000000000  0.000000000000000
%f  0.0000000  0.000000000  0.00000000000  0.000000000000000
%i    0    0    0    0      0      0      0      0         0
%i    0    0    0    0      0      0      0      0         0
/* IAC                                ULTRA-RAPID PREDICTION
/* S/V CLOCKS ARE ALIGNED TO GNSS TIME                      
/* G:C1WC2W R:C1PC2P E:C1XC5X C:C2IC6I J:C1CC2S             
/* PCV:IGS20_2290 OL/AL:FES2004  NONE     YN ORB:CoN CLK:CoN
*  2024 04 05 23 45  0.00000000
PC06 -15292.265249  27382.521058  28116.329847    324.894949
PC07  -8947.853347  40190.619270   9670.502659   -847.444650
PC08  -1408.037311  23081.519985 -35221.263791      0.235275
PC09  -8748.668450  26623.531619  31782.553343   -721.939583
PC10  -2858.739979  42296.114321   2924.914988     13.707202
PC11 -22507.116753  16347.018984   2324.616683    497.281225
PC12 -20968.900090   1548.470175  18379.951284   -226.647576
PC13   6102.629435  27234.645291 -31341.982811    429.452810
PC14 -11977.683559  13568.662963 -21240.929002    575.512421
PC16 -20700.132873  26729.844725  25267.956504   -440.532846
PC19   6697.428690 -21822.554562  16059.708301   -915.565626
PC20  14920.261062  -4872.783940  23087.273826   -330.581218
PC21 -14825.368964 -16670.720479 -16724.470697   -962.249600
PC22  -5865.647901 -27256.039716   -680.983366    -48.934083
PC23   7218.557394  17837.360750  20211.256731   -775.513360
PC24 -25952.846196   -958.345121  10225.264519    944.612616
PC25 -12615.283000  12357.925043  21599.396166    367.584044
PC26 -24023.490746 -12554.454595  -6723.961304   -273.132022
PC27  15901.085734   6618.950241 -21981.299701    294.942349
PC28    881.008210  18538.268601 -20837.350479    225.351246
PC29  16841.772585 -21453.045898   5910.027555    264.322336
PC30  23112.537325  -9926.557805 -12121.300572    -50.628441
PC32  14970.063053  16652.393023  16687.071973   -596.351599
PC33  -6584.623362  21855.177936 -16062.488670   -967.367524
PC34 -23164.244712  11211.014330  10747.586904    405.958755
PC35  -1370.823105 -18688.759228  20674.861082    393.895486
PC36  13126.362712 -11933.148496 -21521.776181     42.200525
PC37  23540.243376  13227.728078   7006.405239   -953.945492
PC38  -9716.719182  20670.850343 -35386.334312    147.226839
PC39 -24794.299424  27222.654030  20412.084933     -7.865739
PC40 -14240.158574  37792.291764  12592.175898    -64.128175
PC41   5507.873699  27368.472863    -80.290310   -919.213361
PC42 -15339.693577   3073.592681 -23060.126255   -443.964354
PC43 -17423.093611  21194.382855  -5039.971315     66.900102
PC44 -16080.617176  -6271.946579  21903.903403    435.101346
PC45  -7249.092712 -17763.238079 -20276.854342    -78.981907
PC46  25623.678831    443.632848 -11007.590878   -137.609145
PE02   7510.340460  25257.475335  13458.842199    117.122826
PE03  -2808.689439  27287.162592  11143.144308   -105.241676
PE04 -11729.260552 -14125.751428 -23203.704848   -366.760021
PE05 -15422.947846  24213.692191  -7210.003303   4735.864584
PE07  19080.091456  -6529.529726  21674.941307   -112.947417
PE08  11129.010093  14838.033499  23077.628444   -250.430614
PE09 -18945.791687   6498.461879 -21791.373024   -396.722515
PE10 -27297.196209  -3411.668568  10915.197050   -614.908309
PE11 -29385.453223   3387.328485    697.091325   3081.305844
PE12 -21354.465311  -9143.530266  18325.631994   -981.150673
PE13  29424.530181  -3009.518521  -1350.154691    -20.869934
PE15  20933.779032   9352.485182 -18726.166128    -95.412906
PE18 -16899.805164  -2513.732465  19315.839909    518.109499
PE19   4589.787609 -27713.172736  -9318.489072   -297.003745
PE21   8988.206807 -15237.571725 -23739.017165   -587.738135
PE24 -21075.146416  -4501.886515  20278.966749   -691.472644
PE25  -9317.943401  14895.712588  23818.426418      3.000304
PE26  20059.463263 -13733.972033  16895.331330    417.471184
PE27  20945.579218   4086.756531 -20513.252837   -317.079907
PE30  20307.377567  20921.751974  -5085.601378   -169.121270
PE31 -20419.404334 -20783.943114   5229.395332    -20.087556
PE33    335.025443 -16109.042787  24831.889382     10.024280
PE34    324.076187  16056.426417 -24870.317928   -104.046313
PE36 -20571.502676  13402.814804 -16520.321922   -209.343591
PG01  13389.526015  11568.445488 -20270.460630    178.134933
PG02   2176.376580  14718.304851 -21509.726088   -458.262347
PG03  11081.996773  22726.739904  -8485.508915    294.365365
PG04    748.692182  22667.012929  13733.752810    332.074405
PG05    381.898115 -18710.229320  18635.740737   -168.076170
PG06  25900.995030  -5556.432917   2703.080820    335.400608
PG07  21396.423631   7311.268054  14807.398992   -100.827290
PG08  -4949.671742  25375.293778  -5092.012959    103.894928
PG09  11037.324194  12356.604718  20668.979299    150.087066
PG10 -19110.186175  -4776.437631 -17762.455940     -5.774633
PG11  19161.754008 -11868.230166  14035.639419   -628.249724
PG12  -8415.454029 -23475.781917  -9509.807923   -493.928900
PG13  13615.387596 -22603.910252   1373.892416    640.324253
PG14  20225.156561   8307.215338 -15189.753531    369.023418
PG15   1584.055850 -25946.653645  -5388.899678    145.345219
PG16  -6651.540100  15305.963542  20218.177993   -323.831163
PG17  16210.372723  -1500.826592 -20599.877521    711.201408
PG18 -21921.274472  -6344.412485  13758.781252   -589.286752
PG19  18010.579849 -10224.044045 -16595.606279    464.144303
PG20  10599.803000 -11201.239331  21684.526230    381.247934
PG21  -3134.736941  15614.722304 -20607.729372    128.421088
PG22  17151.677868    803.698996 -19761.058579      4.851011
PG23 -20374.013255 -14948.814282  -8467.496892    194.030733
PG24   -410.367465 -16226.066674 -21397.087400   -455.868519
PG25 -16645.062381 -20873.540996   -959.302229    493.098785
PG26 -15760.557268   5591.418356  20547.088808    170.477401
PG27 -12753.599580  22174.572220   5964.281724    -16.812725
PG28 -26102.542103   4891.281360   -215.989764   -191.954413
PG29  -8154.333753 -15051.032839  20224.645766   -602.777044
PG30  26246.559029   -355.107102   5054.593589   -409.444281
PG31 -22889.197097   9904.131138   9478.724211   -228.035887
PG32 -16629.389412   5015.315287 -19825.025529   -617.661587
PJ02 -25903.834811  23300.819947  28817.785720     -3.719658
PJ03 -35505.806364  19544.797304  -6984.506860     -0.103872
PJ04      0.000000      0.000000      0.000000     50.480451
PR01  10336.930066  -6749.399675  22326.900194     81.682617
PR02   5493.857381 -21862.616508  12050.829861    -22.669153
PR03  -2812.835922 -24843.411648  -5148.592603     97.722705
PR04  -8970.346769 -14205.545221 -19162.275273    230.756756
PR05 -10567.951834   4005.989185 -22847.607839    129.544341
PR07   3270.415304  24513.163776   6200.775255     79.587006
PR08   9298.474954  13815.670801  19376.551191    -74.976539
PR09  -6524.734042   9361.843395  22826.611218    179.409155
PR11  21377.780511  13466.324528   3585.601068     28.891630
PR12  20389.992544   2974.029919 -15005.271597     38.666320
PR13   8982.326859  -7549.602806 -22665.051926    -45.989696
PR14 -10538.309537 -15298.691279 -17461.454335     26.354887
PR15 -21812.084606 -13067.286546  -1978.708556     80.749602
PR16 -20468.200530  -3106.086841  14883.658144     24.581242
PR17   1369.691301 -12562.870193  22156.080303     75.447305
PR18 -13867.389680  -3063.607045  21185.432982    135.747191
PR19 -22178.373438   6363.187319  10869.306161   -272.020870
PR20 -18146.367704  14761.029471 -10110.822639   -110.799198
PR21  -1526.298724  12491.318026 -22194.227986    -90.400082
PR22  14903.183588   2957.994042 -20470.571842    115.445754
PR24  17040.214369 -15784.030499  10546.800560    -50.670073
PR25  -1574.495412  12694.131995 -22068.649432    -27.318339
PR26   9073.108280  14865.133598  18674.605619    -26.451058
EOF
